$$SOE
2459580.500000000, A.D. 2022-Jan-01 00:00:00.0000, -1.669558302762241E+08, 3.126322082300031E+08, -3.457779459015068E+07,
2459587.500000000, A.D. 2022-Jan-08 00:00:00.0000, -1.774903426227798E+08, 3.069186934754499E+08, -3.290072244988102E+07,
2459594.500000000, A.D. 2022-Jan-15 00:00:00.0000, -1.878340555947540E+08, 3.008751656642976E+08, -3.118827246008010E+07,
2459601.500000000, A.D. 2022-Jan-22 00:00:00.0000, -1.979758340538401E+08, 2.945081057184418E+08, -2.944228457564574E+07,
2459608.500000000, A.D. 2022-Jan-29 00:00:00.0000, -2.079048094023536E+08, 2.878244214794737E+08, -2.766464249857186E+07,
2459615.500000000, A.D. 2022-Feb-05 00:00:00.0000, -2.176104010718988E+08, 2.808314343968955E+08, -2.585727012467128E+07,
2459622.500000000, A.D. 2022-Feb-12 00:00:00.0000, -2.270823350302212E+08, 2.735368640532839E+08, -2.402212816715114E+07,
2459629.500000000, A.D. 2022-Feb-19 00:00:00.0000, -2.363106605738930E+08, 2.659488129544187E+08, -2.216121065943916E+07,
2459636.500000000, A.D. 2022-Feb-26 00:00:00.0000, -2.452857666599986E+08, 2.580757509374938E+08, -2.027654129536928E+07,
2459643.500000000, A.D. 2022-Mar-05 00:00:00.0000, -2.539983975569465E+08, 2.499264986580395E+08, -1.837016968890889E+07,
2459650.500000000, A.D. 2022-Mar-12 00:00:00.0000, -2.624396675362413E+08, 2.415102101676486E+08, -1.644416759495378E+07,
2459657.500000000, A.D. 2022-Mar-19 00:00:00.0000, -2.706010744840989E+08, 2.328363546898923E+08, -1.450062511065871E+07,
2459664.500000000, A.D. 2022-Mar-26 00:00:00.0000, -2.784745123675434E+08, 2.239146976694657E+08, -1.254164687478858E+07,
2459671.500000000, A.D. 2022-Apr-02 00:00:00.0000, -2.860522824517743E+08, 2.147552811213137E+08, -1.056934829065725E+07,
2459678.500000000, A.D. 2022-Apr-09 00:00:00.0000, -2.933271029689525E+08, 2.053684033685167E+08, -8.585851811802953E+06,
2459685.500000000, A.D. 2022-Apr-16 00:00:00.0000, -3.002921168611532E+08, 1.957645989075936E+08, -6.593283284024343E+06,
2459692.500000000, A.D. 2022-Apr-23 00:00:00.0000, -3.069408988554696E+08, 1.859546195705012E+08, -4.593768152905732E+06,
2459699.500000000, A.D. 2022-Apr-30 00:00:00.0000, -3.132674637406155E+08, 1.759494148259697E+08, -2.589427562800005E+06,
2459706.500000000, A.D. 2022-May-07 00:00:00.0000, -3.192662727833389E+08, 1.657601093356115E+08, -5.823748021802455E+05,
2459713.500000000, A.D. 2022-May-14 00:00:00.0000, -3.249322368978918E+08, 1.553979808833320E+08, 1.425288014436662E+06,
2459720.500000000, A.D. 2022-May-21 00:00:00.0000, -3.302607186174181E+08, 1.448744395140458E+08, 3.431473264917530E+06,
2459727.500000000, A.D. 2022-May-28 00:00:00.0000, -3.352475333727468E+08, 1.342010070041031E+08, 5.434111092873700E+06,
2459734.500000000, A.D. 2022-Jun-04 00:00:00.0000, -3.398889498294443E+08, 1.233892964288293E+08, 7.431152575595617E+06,
2459741.500000000, A.D. 2022-Jun-11 00:00:00.0000, -3.441816891705264E+08, 1.124509919018608E+08, 9.420572765269257E+06,
2459748.500000000, A.D. 2022-Jun-18 00:00:00.0000, -3.481229233237763E+08, 1.013978285675917E+08, 1.140037359371123E+07,
2459755.500000000, A.D. 2022-Jun-25 00:00:00.0000, -3.517102721467122E+08, 9.024157287748645E+07, 1.336858662886738E+07,
2459762.500000000, A.D. 2022-Jul-02 00:00:00.0000, -3.549417994815736E+08, 7.899400314404908E+07, 1.532327566007844E+07,
2459769.500000000, A.D. 2022-Jul-09 00:00:00.0000, -3.578160077394903E+08, 6.766689060411456E+07, 1.726253908646701E+07,
2459776.500000000, A.D. 2022-Jul-16 00:00:00.0000, -3.603318311208225E+08, 5.627198212344240E+07, 1.918451219863476E+07,
2459783.500000000, A.D. 2022-Jul-23 00:00:00.0000, -3.624886297255771E+08, 4.482098466340155E+07, 2.108736955917964E+07,
2459790.500000000, A.D. 2022-Jul-30 00:00:00.0000, -3.642861845308024E+08, 3.332554819495757E+07, 2.296932719884959E+07,
2459797.500000000, A.D. 2022-Aug-06 00:00:00.0000, -3.657246896957430E+08, 2.179724774534621E+07, 2.482864435114181E+07,
2459804.500000000, A.D. 2022-Aug-13 00:00:00.0000, -3.668047430714476E+08, 1.024756736156031E+07, 2.666362502647305E+07,
2459811.500000000, A.D. 2022-Aug-20 00:00:00.0000, -3.675273365415287E+08, -1.312114492494050E+06, 2.847261952950748E+07,
2459818.500000000, A.D. 2022-Aug-27 00:00:00.0000, -3.678938461889238E+08, -1.287053881456577E+07, 3.025402585579687E+07,
2459825.500000000, A.D. 2022-Sep-03 00:00:00.0000, -3.679060221023182E+08, -2.441657931394009E+07, 3.200629093877078E+07,
2459832.500000000, A.D. 2022-Sep-10 00:00:00.0000, -3.675659777908628E+08, -3.593925499867664E+07, 3.372791174417742E+07,
2459839.500000000, A.D. 2022-Sep-17 00:00:00.0000, -3.668761792353432E+08, -4.742774209700442E+07, 3.541743621302605E+07,
2459846.500000000, A.D. 2022-Sep-24 00:00:00.0000, -3.658394335721870E+08, -5.887138536274227E+07, 3.707346404775938E+07,
2459853.500000000, A.D. 2022-Oct-01 00:00:00.0000, -3.644588772255308E+08, -7.025970878875764E+07, 3.869464732270515E+07,
2459860.500000000, A.D. 2022-Oct-08 00:00:00.0000, -3.627379631317443E+08, -8.158242521001279E+07, 4.027969092913400E+07,
2459867.500000000, A.D. 2022-Oct-15 00:00:00.0000, -3.606804480343574E+08, -9.282944360323659E+07, 4.182735304299540E+07,
2459874.500000000, A.D. 2022-Oct-22 00:00:00.0000, -3.582903820727891E+08, -1.039908757788622E+08, 4.333644568189344E+07,
2459881.500000000, A.D. 2022-Oct-29 00:00:00.0000, -3.555720982094337E+08, -1.150570450768007E+08, 4.480583491472623E+07,
2459888.500000000, A.D. 2022-Nov-05 00:00:00.0000, -3.525301994383645E+08, -1.260184943455857E+08, 4.623444076089972E+07,
2459895.500000000, A.D. 2022-Nov-12 00:00:00.0000, -3.491695457806684E+08, -1.368659919596115E+08, 4.762123706882737E+07,
2459902.500000000, A.D. 2022-Nov-19 00:00:00.0000, -3.454952418253110E+08, -1.475905368525384E+08, 4.896525136804198E+07,
2459909.500000000, A.D. 2022-Nov-26 00:00:00.0000, -3.415126245923882E+08, -1.581833629884315E+08, 5.026556464527709E+07,
2459916.500000000, A.D. 2022-Dec-03 00:00:00.0000, -3.372272515879511E+08, -1.686359433052304E+08, 5.152131103528520E+07,
2459923.500000000, A.D. 2022-Dec-10 00:00:00.0000, -3.326448890342751E+08, -1.789399931351490E+08, 5.273167743014114E+07,
2459930.500000000, A.D. 2022-Dec-17 00:00:00.0000, -3.277715002757441E+08, -1.890874731519864E+08, 5.389590300861112E+07,
2459937.500000000, A.D. 2022-Dec-24 00:00:00.0000, -3.226132342730652E+08, -1.990705919377978E+08, 5.501327867586289E+07,
2459944.500000000, A.D. 2022-Dec-31 00:00:00.0000, -3.171764138481962E+08, -2.088818080888430E+08, 5.608314639512477E+07,
2459951.500000000, A.D. 2023-Jan-07 00:00:00.0000, -3.114675235749112E+08, -2.185138309258673E+08, 5.710489848414651E+07,
2459958.500000000, A.D. 2023-Jan-14 00:00:00.0000, -3.054931992967403E+08, -2.279596193393672E+08, 5.807797710257923E+07,
2459965.500000000, A.D. 2023-Jan-21 00:00:00.0000, -2.992602199301453E+08, -2.372123819714141E+08, 5.900187373521604E+07,
2459972.500000000, A.D. 2023-Jan-28 00:00:00.0000, -2.927754978985464E+08, -2.462655789591681E+08, 5.987612832436710E+07,
2459979.500000000, A.D. 2023-Feb-04 00:00:00.0000, -2.860460684174101E+08, -2.551129222392413E+08, 6.070032832350376E+07,
2459986.500000000, A.D. 2023-Feb-11 00:00:00.0000, -2.790790794329427E+08, -2.637483746310003E+08, 6.147410782559595E+07,
2459993.500000000, A.D. 2023-Feb-18 00:00:00.0000, -2.718817822817561E+08, -2.721661485467051E+08, 6.219714670851833E+07,
2460000.500000000, A.D. 2023-Feb-25 00:00:00.0000, -2.644615228117140E+08, -2.803607045162235E+08, 6.286916976410028E+07,
2460007.500000000, A.D. 2023-Mar-04 00:00:00.0000, -2.568257328647070E+08, -2.883267495334116E+08, 6.348994580728919E+07,
2460014.500000000, A.D. 2023-Mar-11 00:00:00.0000, -2.489819220948445E+08, -2.960592352479976E+08, 6.405928676717307E+07,
2460021.500000000, A.D. 2023-Mar-18 00:00:00.0000, -2.409376700753596E+08, -3.035533560752113E+08, 6.457704675544599E+07,
2460028.500000000, A.D. 2023-Mar-25 00:00:00.0000, -2.327006184896093E+08, -3.108045472921465E+08, 6.504312109338336E+07,
2460035.500000000, A.D. 2023-Apr-01 00:00:00.0000, -2.242784629791309E+08, -3.178084827483773E+08, 6.545744529384568E+07,
2460042.500000000, A.D. 2023-Apr-08 00:00:00.0000, -2.156789452604281E+08, -3.245610709854406E+08, 6.581999415780748E+07,
2460049.500000000, A.D. 2023-Apr-15 00:00:00.0000, -2.069098478421083E+08, -3.310584508898386E+08, 6.613078111179361E+07,
2460056.500000000, A.D. 2023-Apr-22 00:00:00.0000, -1.979789895272152E+08, -3.372969899508767E+08, 6.638985737335569E+07,
2460063.500000000, A.D. 2023-Apr-29 00:00:00.0000, -1.888942189609473E+08, -3.432732828900882E+08, 6.659731088082792E+07,
2460070.500000000, A.D. 2023-May-06 00:00:00.0000, -1.796634079791537E+08, -3.489841488979698E+08, 6.675326529697928E+07,
2460077.500000000, A.D. 2023-May-13 00:00:00.0000, -1.702944457281658E+08, -3.544266283857413E+08, 6.685787910479404E+07,
2460084.500000000, A.D. 2023-May-20 00:00:00.0000, -1.607952333141911E+08, -3.595979797559601E+08, 6.691134473460943E+07,
2460091.500000000, A.D. 2023-May-27 00:00:00.0000, -1.511736787798811E+08, -3.644956762337961E+08, 6.691388770283943E+07,
2460098.500000000, A.D. 2023-Jun-03 00:00:00.0000, -1.414376923410119E+08, -3.691174027457353E+08, 6.686576575964303E+07,
2460105.500000000, A.D. 2023-Jun-10 00:00:00.0000, -1.315951818502636E+08, -3.734610528723019E+08, 6.676726804315816E+07,
2460112.500000000, A.D. 2023-Jun-17 00:00:00.0000, -1.216540483902805E+08, -3.775247259470414E+08, 6.661871422840169E+07,
2460119.500000000, A.D. 2023-Jun-24 00:00:00.0000, -1.116221816677078E+08, -3.813067242570938E+08, 6.642045364719197E+07,
2460126.500000000, A.D. 2023-Jul-01 00:00:00.0000, -1.015074549471649E+08, -3.848055495262876E+08, 6.617286442435659E+07,
2460133.500000000, A.D. 2023-Jul-08 00:00:00.0000, -9.131772119071543E+07, -3.880198978648517E+08, 6.587635285084844E+07,
2460140.500000000, A.D. 2023-Jul-15 00:00:00.0000, -8.106081166885644E+07, -3.909486560200039E+08, 6.553135287862727E+07,
$$EOE